<?xml version="1.0" encoding="UTF-8"?>
<gpx creator="Wikiloc - https://www.wikiloc.com" version="1.1" xmlns="http://www.topografix.com/GPX/1/1" xmlns:xsi="http://www.w3.org/2001/XMLSchema-instance" xsi:schemaLocation="http://www.topografix.com/GPX/1/1 http://www.topografix.com/GPX/1/1/gpx.xsd">
  <metadata>
    <name>Wikiloc - Pekoe Trail : Sri Lanka's Tea Country Hiking Trail (extended...</name>
    <link href="https://www.wikiloc.com/hiking-trails/pekoe-trail-sri-lankas-tea-country-hiking-trail-extended-101096950">
      <text>Pekoe Trail : Sri Lanka's Tea Country Hiking Trail (extended... on Wikiloc</text>
    </link>
    <time>2022-02-23T08:52:12Z</time>
  </metadata>
  <trk>
    <name>Pekoe Trail : Sri Lanka's Tea Country Hiking Trail (extended...</name>
    <cmt></cmt>
    <desc></desc>
    <trkseg>
      <trkpt lat="6.967549" lon="80.767633">
        <ele>1888.569</ele>
        <time>2022-02-06T04:31:39Z</time>
      </trkpt>
      <trkpt lat="6.965865" lon="80.771061">
        <ele>1883.104</ele>
        <time>2022-02-06T04:38:35Z</time>
      </trkpt>
      <trkpt lat="6.969503" lon="80.776000">
        <ele>1894.524</ele>
        <time>2022-02-06T04:47:49Z</time>
      </trkpt>
      <trkpt lat="6.968560" lon="80.778120">
        <ele>1894.209</ele>
        <time>2022-02-06T04:50:47Z</time>
      </trkpt>
      <trkpt lat="6.966491" lon="80.778210">
        <ele>1898.657</ele>
        <time>2022-02-06T04:53:24Z</time>
      </trkpt>
      <trkpt lat="6.966929" lon="80.779812">
        <ele>1901.446</ele>
        <time>2022-02-06T04:56:42Z</time>
      </trkpt>
      <trkpt lat="6.964862" lon="80.781043">
        <ele>1896.717</ele>
        <time>2022-02-06T05:00:15Z</time>
      </trkpt>
      <trkpt lat="6.965485" lon="80.782637">
        <ele>1906.526</ele>
        <time>2022-02-06T05:03:20Z</time>
      </trkpt>
      <trkpt lat="6.963725" lon="80.783690">
        <ele>1921.145</ele>
        <time>2022-02-06T05:11:35Z</time>
      </trkpt>
      <trkpt lat="6.963074" lon="80.787806">
        <ele>1931.112</ele>
        <time>2022-02-06T05:21:36Z</time>
      </trkpt>
      <trkpt lat="6.964994" lon="80.788125">
        <ele>1924.525</ele>
        <time>2022-02-06T05:24:37Z</time>
      </trkpt>
      <trkpt lat="6.962865" lon="80.790214">
        <ele>1892.371</ele>
        <time>2022-02-06T05:31:19Z</time>
      </trkpt>
      <trkpt lat="6.965205" lon="80.790371">
        <ele>1875.976</ele>
        <time>2022-02-06T05:34:31Z</time>
      </trkpt>
      <trkpt lat="6.962615" lon="80.795895">
        <ele>1871.456</ele>
        <time>2022-02-06T05:47:09Z</time>
      </trkpt>
      <trkpt lat="6.964184" lon="80.797023">
        <ele>1873.859</ele>
        <time>2022-02-06T05:52:31Z</time>
      </trkpt>
      <trkpt lat="6.970785" lon="80.793805">
        <ele>1888.214</ele>
        <time>2022-02-06T06:06:18Z</time>
      </trkpt>
      <trkpt lat="6.983533" lon="80.796795">
        <ele>1979.809</ele>
        <time>2022-02-06T06:46:30Z</time>
      </trkpt>
      <trkpt lat="6.986388" lon="80.799701">
        <ele>2004.566</ele>
        <time>2022-02-06T07:04:23Z</time>
      </trkpt>
      <trkpt lat="6.986337" lon="80.801973">
        <ele>1993.435</ele>
        <time>2022-02-06T07:08:37Z</time>
      </trkpt>
      <trkpt lat="6.983422" lon="80.803861">
        <ele>1982.436</ele>
        <time>2022-02-06T07:12:55Z</time>
      </trkpt>
      <trkpt lat="6.984587" lon="80.806070">
        <ele>1947.285</ele>
        <time>2022-02-06T07:17:29Z</time>
      </trkpt>
      <trkpt lat="6.982968" lon="80.808385">
        <ele>1919.564</ele>
        <time>2022-02-06T07:24:26Z</time>
      </trkpt>
      <trkpt lat="6.988502" lon="80.806096">
        <ele>1941.171</ele>
        <time>2022-02-06T07:35:34Z</time>
      </trkpt>
      <trkpt lat="6.990917" lon="80.809534">
        <ele>1968.234</ele>
        <time>2022-02-06T07:42:33Z</time>
      </trkpt>
      <trkpt lat="6.995647" lon="80.811120">
        <ele>1967.590</ele>
        <time>2022-02-06T07:54:27Z</time>
      </trkpt>
      <trkpt lat="6.996471" lon="80.814308">
        <ele>1993.725</ele>
        <time>2022-02-06T08:13:00Z</time>
      </trkpt>
      <trkpt lat="6.999792" lon="80.813991">
        <ele>1973.379</ele>
        <time>2022-02-06T08:19:27Z</time>
      </trkpt>
      <trkpt lat="7.000948" lon="80.818012">
        <ele>1931.805</ele>
        <time>2022-02-06T08:29:19Z</time>
      </trkpt>
      <trkpt lat="6.998016" lon="80.822290">
        <ele>1930.225</ele>
        <time>2022-02-06T08:38:15Z</time>
      </trkpt>
      <trkpt lat="7.000272" lon="80.828836">
        <ele>1931.009</ele>
        <time>2022-02-07T02:56:27Z</time>
      </trkpt>
      <trkpt lat="6.997594" lon="80.830101">
        <ele>1918.858</ele>
        <time>2022-02-07T03:03:26Z</time>
      </trkpt>
      <trkpt lat="7.004455" lon="80.832291">
        <ele>1851.727</ele>
        <time>2022-02-07T03:17:22Z</time>
      </trkpt>
      <trkpt lat="7.003625" lon="80.829904">
        <ele>1833.928</ele>
        <time>2022-02-07T03:23:40Z</time>
      </trkpt>
      <trkpt lat="7.005635" lon="80.833405">
        <ele>1774.387</ele>
        <time>2022-02-07T03:30:27Z</time>
      </trkpt>
      <trkpt lat="7.002609" lon="80.833334">
        <ele>1762.516</ele>
        <time>2022-02-07T03:35:11Z</time>
      </trkpt>
      <trkpt lat="7.006353" lon="80.838280">
        <ele>1741.563</ele>
        <time>2022-02-07T04:02:47Z</time>
      </trkpt>
      <trkpt lat="7.010330" lon="80.838989">
        <ele>1693.846</ele>
        <time>2022-02-07T04:11:59Z</time>
      </trkpt>
      <trkpt lat="7.009229" lon="80.846257">
        <ele>1592.862</ele>
        <time>2022-02-07T04:27:20Z</time>
      </trkpt>
      <trkpt lat="7.010630" lon="80.846913">
        <ele>1586.057</ele>
        <time>2022-02-07T04:30:49Z</time>
      </trkpt>
      <trkpt lat="7.008846" lon="80.850499">
        <ele>1584.984</ele>
        <time>2022-02-07T04:38:54Z</time>
      </trkpt>
      <trkpt lat="7.004572" lon="80.851699">
        <ele>1550.407</ele>
        <time>2022-02-07T04:49:24Z</time>
      </trkpt>
      <trkpt lat="7.006977" lon="80.857872">
        <ele>1505.017</ele>
        <time>2022-02-07T04:59:49Z</time>
      </trkpt>
      <trkpt lat="7.004497" lon="80.859773">
        <ele>1501.809</ele>
        <time>2022-02-07T05:04:05Z</time>
      </trkpt>
      <trkpt lat="7.007324" lon="80.869351">
        <ele>1444.959</ele>
        <time>2022-02-07T05:35:27Z</time>
      </trkpt>
      <trkpt lat="7.005999" lon="80.871348">
        <ele>1463.898</ele>
        <time>2022-02-07T05:40:57Z</time>
      </trkpt>
      <trkpt lat="7.006726" lon="80.879882">
        <ele>1465.529</ele>
        <time>2022-02-07T05:55:27Z</time>
      </trkpt>
      <trkpt lat="7.001574" lon="80.883154">
        <ele>1396.028</ele>
        <time>2022-02-07T06:06:17Z</time>
      </trkpt>
      <trkpt lat="7.004869" lon="80.886697">
        <ele>1345.887</ele>
        <time>2022-02-07T06:13:11Z</time>
      </trkpt>
      <trkpt lat="7.003967" lon="80.887764">
        <ele>1337.714</ele>
        <time>2022-02-07T06:15:07Z</time>
      </trkpt>
      <trkpt lat="7.006849" lon="80.889223">
        <ele>1305.717</ele>
        <time>2022-02-07T06:55:29Z</time>
      </trkpt>
      <trkpt lat="7.004820" lon="80.891004">
        <ele>1272.963</ele>
        <time>2022-02-07T07:00:33Z</time>
      </trkpt>
      <trkpt lat="7.007000" lon="80.890894">
        <ele>1249.818</ele>
        <time>2022-02-07T07:04:14Z</time>
      </trkpt>
      <trkpt lat="7.007433" lon="80.896463">
        <ele>1176.643</ele>
        <time>2022-02-07T07:14:23Z</time>
      </trkpt>
      <trkpt lat="7.003545" lon="80.895865">
        <ele>1170.664</ele>
        <time>2022-02-07T07:20:45Z</time>
      </trkpt>
      <trkpt lat="7.002826" lon="80.901329">
        <ele>1196.310</ele>
        <time>2022-02-07T07:34:02Z</time>
      </trkpt>
      <trkpt lat="6.999016" lon="80.902002">
        <ele>1253.309</ele>
        <time>2022-02-07T07:52:12Z</time>
      </trkpt>
      <trkpt lat="6.996602" lon="80.907668">
        <ele>1327.555</ele>
        <time>2022-02-07T08:21:08Z</time>
      </trkpt>
      <trkpt lat="6.995067" lon="80.907777">
        <ele>1350.434</ele>
        <time>2022-02-07T08:24:43Z</time>
      </trkpt>
      <trkpt lat="6.995940" lon="80.908754">
        <ele>1368.185</ele>
        <time>2022-02-07T08:27:54Z</time>
      </trkpt>
      <trkpt lat="6.991978" lon="80.907346">
        <ele>1394.664</ele>
        <time>2022-02-07T08:43:01Z</time>
      </trkpt>
      <trkpt lat="6.992261" lon="80.910289">
        <ele>1421.043</ele>
        <time>2022-02-07T08:51:14Z</time>
      </trkpt>
      <trkpt lat="6.990522" lon="80.908333">
        <ele>1420.110</ele>
        <time>2022-02-07T09:04:39Z</time>
      </trkpt>
      <trkpt lat="6.988239" lon="80.910202">
        <ele>1514.143</ele>
        <time>2022-02-07T09:15:44Z</time>
      </trkpt>
      <trkpt lat="6.987170" lon="80.908061">
        <ele>1553.049</ele>
        <time>2022-02-07T09:21:54Z</time>
      </trkpt>
      <trkpt lat="6.985715" lon="80.909510">
        <ele>1595.274</ele>
        <time>2022-02-07T09:30:04Z</time>
      </trkpt>
      <trkpt lat="6.977487" lon="80.898134">
        <ele>1571.685</ele>
        <time>2022-02-07T10:10:01Z</time>
      </trkpt>
      <trkpt lat="6.975832" lon="80.900318">
        <ele>1521.089</ele>
        <time>2022-02-07T10:13:58Z</time>
      </trkpt>
      <trkpt lat="6.977861" lon="80.903034">
        <ele>1490.017</ele>
        <time>2022-02-07T10:18:25Z</time>
      </trkpt>
      <trkpt lat="6.972738" lon="80.899396">
        <ele>1425.509</ele>
        <time>2022-02-07T10:31:01Z</time>
      </trkpt>
      <trkpt lat="6.971973" lon="80.902073">
        <ele>1397.289</ele>
        <time>2022-02-07T10:35:03Z</time>
      </trkpt>
      <trkpt lat="6.967108" lon="80.902378">
        <ele>1368.158</ele>
        <time>2022-02-07T10:43:17Z</time>
      </trkpt>
      <trkpt lat="6.968548" lon="80.905450">
        <ele>1353.689</ele>
        <time>2022-02-07T10:48:59Z</time>
      </trkpt>
      <trkpt lat="6.966991" lon="80.909100">
        <ele>1337.148</ele>
        <time>2022-02-07T10:58:19Z</time>
      </trkpt>
      <trkpt lat="6.962209" lon="80.906574">
        <ele>1337.567</ele>
        <time>2022-02-07T11:09:49Z</time>
      </trkpt>
      <trkpt lat="6.955207" lon="80.906574">
        <ele>1109.844</ele>
        <time>2022-02-07T11:31:56Z</time>
      </trkpt>
      <trkpt lat="6.954634" lon="80.907899">
        <ele>1111.517</ele>
        <time>2022-02-07T11:34:43Z</time>
      </trkpt>
      <trkpt lat="6.956406" lon="80.908562">
        <ele>1111.483</ele>
        <time>2022-02-07T11:37:26Z</time>
      </trkpt>
      <trkpt lat="6.954764" lon="80.908940">
        <ele>1105.628</ele>
        <time>2022-02-07T11:39:49Z</time>
      </trkpt>
      <trkpt lat="6.953593" lon="80.914808">
        <ele>1081.434</ele>
        <time>2022-02-07T11:52:08Z</time>
      </trkpt>
      <trkpt lat="6.939315" lon="80.915913">
        <ele>1118.055</ele>
        <time>2022-02-08T03:20:02Z</time>
      </trkpt>
      <trkpt lat="6.938310" lon="80.919599">
        <ele>1122.810</ele>
        <time>2022-02-08T03:26:08Z</time>
      </trkpt>
      <trkpt lat="6.931153" lon="80.919843">
        <ele>1156.609</ele>
        <time>2022-02-08T03:50:20Z</time>
      </trkpt>
      <trkpt lat="6.931133" lon="80.925653">
        <ele>1128.584</ele>
        <time>2022-02-08T03:58:40Z</time>
      </trkpt>
      <trkpt lat="6.925087" lon="80.932091">
        <ele>1136.463</ele>
        <time>2022-02-08T04:10:48Z</time>
      </trkpt>
      <trkpt lat="6.924892" lon="80.936636">
        <ele>1114.144</ele>
        <time>2022-02-08T04:16:51Z</time>
      </trkpt>
      <trkpt lat="6.922942" lon="80.938099">
        <ele>1124.933</ele>
        <time>2022-02-08T04:21:13Z</time>
      </trkpt>
      <trkpt lat="6.926570" lon="80.941793">
        <ele>1092.742</ele>
        <time>2022-02-08T04:53:31Z</time>
      </trkpt>
      <trkpt lat="6.923362" lon="80.944114">
        <ele>1082.129</ele>
        <time>2022-02-08T04:59:21Z</time>
      </trkpt>
      <trkpt lat="6.921656" lon="80.950841">
        <ele>1023.522</ele>
        <time>2022-02-08T05:12:11Z</time>
      </trkpt>
      <trkpt lat="6.914751" lon="80.951299">
        <ele>891.928</ele>
        <time>2022-02-08T05:39:30Z</time>
      </trkpt>
      <trkpt lat="6.913390" lon="80.956168">
        <ele>853.853</ele>
        <time>2022-02-08T05:49:14Z</time>
      </trkpt>
      <trkpt lat="6.915027" lon="80.956941">
        <ele>853.375</ele>
        <time>2022-02-08T05:52:41Z</time>
      </trkpt>
      <trkpt lat="6.910821" lon="80.959653">
        <ele>894.928</ele>
        <time>2022-02-08T06:20:56Z</time>
      </trkpt>
      <trkpt lat="6.913830" lon="80.961018">
        <ele>927.320</ele>
        <time>2022-02-08T06:28:35Z</time>
      </trkpt>
      <trkpt lat="6.912586" lon="80.960911">
        <ele>951.309</ele>
        <time>2022-02-08T06:45:52Z</time>
      </trkpt>
      <trkpt lat="6.913849" lon="80.964141">
        <ele>1071.128</ele>
        <time>2022-02-08T07:13:24Z</time>
      </trkpt>
      <trkpt lat="6.910603" lon="80.965360">
        <ele>1107.937</ele>
        <time>2022-02-08T07:21:51Z</time>
      </trkpt>
      <trkpt lat="6.917634" lon="80.966824">
        <ele>1142.788</ele>
        <time>2022-02-08T07:36:53Z</time>
      </trkpt>
      <trkpt lat="6.923852" lon="80.972407">
        <ele>1204.917</ele>
        <time>2022-02-08T07:52:02Z</time>
      </trkpt>
      <trkpt lat="6.924743" lon="80.976951">
        <ele>1199.636</ele>
        <time>2022-02-08T07:58:34Z</time>
      </trkpt>
      <trkpt lat="6.928430" lon="80.978375">
        <ele>1197.323</ele>
        <time>2022-02-08T08:13:00Z</time>
      </trkpt>
      <trkpt lat="6.930357" lon="80.982847">
        <ele>1173.816</ele>
        <time>2022-02-08T08:21:19Z</time>
      </trkpt>
      <trkpt lat="6.927528" lon="80.982018">
        <ele>1204.572</ele>
        <time>2022-02-08T08:27:50Z</time>
      </trkpt>
      <trkpt lat="6.928217" lon="80.986305">
        <ele>1244.137</ele>
        <time>2022-02-08T08:38:00Z</time>
      </trkpt>
      <trkpt lat="6.935731" lon="80.987498">
        <ele>1214.578</ele>
        <time>2022-02-08T09:19:42Z</time>
      </trkpt>
      <trkpt lat="6.936874" lon="80.993129">
        <ele>1244.033</ele>
        <time>2022-02-08T09:43:24Z</time>
      </trkpt>
      <trkpt lat="6.948562" lon="81.004847">
        <ele>1214.526</ele>
        <time>2022-02-08T10:21:32Z</time>
      </trkpt>
      <trkpt lat="6.951087" lon="81.003547">
        <ele>1200.009</ele>
        <time>2022-02-08T10:26:09Z</time>
      </trkpt>
      <trkpt lat="6.951961" lon="81.005625">
        <ele>1189.828</ele>
        <time>2022-02-08T10:29:38Z</time>
      </trkpt>
      <trkpt lat="6.948986" lon="81.008450">
        <ele>1187.887</ele>
        <time>2022-02-08T10:35:01Z</time>
      </trkpt>
      <trkpt lat="6.950666" lon="81.010147">
        <ele>1153.198</ele>
        <time>2022-02-08T10:38:58Z</time>
      </trkpt>
      <trkpt lat="6.956557" lon="81.010298">
        <ele>1137.687</ele>
        <time>2022-02-08T10:47:49Z</time>
      </trkpt>
      <trkpt lat="6.962014" lon="81.013143">
        <ele>1122.376</ele>
        <time>2022-02-08T11:09:22Z</time>
      </trkpt>
      <trkpt lat="6.966527" lon="81.008689">
        <ele>1128.143</ele>
        <time>2022-02-08T11:19:31Z</time>
      </trkpt>
      <trkpt lat="6.967929" lon="81.009095">
        <ele>1081.866</ele>
        <time>2022-02-08T11:25:18Z</time>
      </trkpt>
      <trkpt lat="6.966822" lon="81.009899">
        <ele>1065.422</ele>
        <time>2022-02-08T11:27:33Z</time>
      </trkpt>
      <trkpt lat="6.968678" lon="81.009563">
        <ele>1052.167</ele>
        <time>2022-02-08T11:30:27Z</time>
      </trkpt>
      <trkpt lat="6.966453" lon="81.011704">
        <ele>1004.928</ele>
        <time>2022-02-08T11:37:33Z</time>
      </trkpt>
      <trkpt lat="6.968812" lon="81.010764">
        <ele>985.389</ele>
        <time>2022-02-08T11:42:06Z</time>
      </trkpt>
      <trkpt lat="6.969187" lon="81.013883">
        <ele>943.617</ele>
        <time>2022-02-08T11:47:32Z</time>
      </trkpt>
      <trkpt lat="6.970391" lon="81.012042">
        <ele>927.109</ele>
        <time>2022-02-08T11:52:14Z</time>
      </trkpt>
      <trkpt lat="6.969564" lon="81.015496">
        <ele>895.573</ele>
        <time>2022-02-08T11:57:45Z</time>
      </trkpt>
      <trkpt lat="6.968217" lon="81.014338">
        <ele>879.952</ele>
        <time>2022-02-08T12:00:35Z</time>
      </trkpt>
      <trkpt lat="6.966465" lon="81.018416">
        <ele>836.773</ele>
        <time>2022-02-08T12:07:15Z</time>
      </trkpt>
      <trkpt lat="6.967863" lon="81.016782">
        <ele>819.062</ele>
        <time>2022-02-08T12:11:48Z</time>
      </trkpt>
      <trkpt lat="6.967502" lon="81.020243">
        <ele>793.581</ele>
        <time>2022-02-08T12:17:13Z</time>
      </trkpt>
      <trkpt lat="6.963068" lon="81.020951">
        <ele>765.458</ele>
        <time>2022-02-08T12:25:47Z</time>
      </trkpt>
      <trkpt lat="6.960571" lon="81.023612">
        <ele>747.481</ele>
        <time>2022-02-09T02:09:26Z</time>
      </trkpt>
      <trkpt lat="6.960457" lon="81.030189">
        <ele>743.057</ele>
        <time>2022-02-09T02:23:07Z</time>
      </trkpt>
      <trkpt lat="6.953433" lon="81.032197">
        <ele>730.452</ele>
        <time>2022-02-09T02:37:57Z</time>
      </trkpt>
      <trkpt lat="6.954322" lon="81.034421">
        <ele>747.216</ele>
        <time>2022-02-09T03:03:38Z</time>
      </trkpt>
      <trkpt lat="6.950187" lon="81.038852">
        <ele>858.176</ele>
        <time>2022-02-09T03:19:16Z</time>
      </trkpt>
      <trkpt lat="6.949770" lon="81.041688">
        <ele>885.813</ele>
        <time>2022-02-09T03:23:57Z</time>
      </trkpt>
      <trkpt lat="6.953392" lon="81.041744">
        <ele>905.309</ele>
        <time>2022-02-09T03:36:29Z</time>
      </trkpt>
      <trkpt lat="6.948542" lon="81.043448">
        <ele>944.682</ele>
        <time>2022-02-09T03:45:46Z</time>
      </trkpt>
      <trkpt lat="6.949742" lon="81.044552">
        <ele>949.741</ele>
        <time>2022-02-09T03:48:09Z</time>
      </trkpt>
      <trkpt lat="6.941340" lon="81.048704">
        <ele>945.662</ele>
        <time>2022-02-09T04:13:12Z</time>
      </trkpt>
      <trkpt lat="6.941515" lon="81.050587">
        <ele>955.431</ele>
        <time>2022-02-09T04:15:43Z</time>
      </trkpt>
      <trkpt lat="6.944599" lon="81.049662">
        <ele>969.550</ele>
        <time>2022-02-09T04:20:47Z</time>
      </trkpt>
      <trkpt lat="6.940233" lon="81.052538">
        <ele>1002.157</ele>
        <time>2022-02-09T04:29:32Z</time>
      </trkpt>
      <trkpt lat="6.942053" lon="81.051826">
        <ele>1011.540</ele>
        <time>2022-02-09T04:32:56Z</time>
      </trkpt>
      <trkpt lat="6.940129" lon="81.055413">
        <ele>1048.786</ele>
        <time>2022-02-09T04:53:44Z</time>
      </trkpt>
      <trkpt lat="6.928723" lon="81.059104">
        <ele>1181.181</ele>
        <time>2022-02-09T05:17:35Z</time>
      </trkpt>
      <trkpt lat="6.931810" lon="81.061165">
        <ele>1153.772</ele>
        <time>2022-02-09T05:41:10Z</time>
      </trkpt>
      <trkpt lat="6.931472" lon="81.062670">
        <ele>1123.813</ele>
        <time>2022-02-09T05:44:17Z</time>
      </trkpt>
      <trkpt lat="6.925890" lon="81.062023">
        <ele>1066.014</ele>
        <time>2022-02-09T05:53:00Z</time>
      </trkpt>
      <trkpt lat="6.924583" lon="81.064971">
        <ele>1112.009</ele>
        <time>2022-02-09T05:58:06Z</time>
      </trkpt>
      <trkpt lat="6.911853" lon="81.069866">
        <ele>964.388</ele>
        <time>2022-02-09T06:30:54Z</time>
      </trkpt>
      <trkpt lat="6.911758" lon="81.067497">
        <ele>938.247</ele>
        <time>2022-02-09T06:35:39Z</time>
      </trkpt>
      <trkpt lat="6.905409" lon="81.067429">
        <ele>889.078</ele>
        <time>2022-02-09T06:44:52Z</time>
      </trkpt>
      <trkpt lat="6.906810" lon="81.068868">
        <ele>867.697</ele>
        <time>2022-02-09T06:48:30Z</time>
      </trkpt>
      <trkpt lat="6.903335" lon="81.066887">
        <ele>869.886</ele>
        <time>2022-02-09T06:56:02Z</time>
      </trkpt>
      <trkpt lat="6.903213" lon="81.063107">
        <ele>894.413</ele>
        <time>2022-02-09T07:04:02Z</time>
      </trkpt>
      <trkpt lat="6.902807" lon="81.065193">
        <ele>892.056</ele>
        <time>2022-02-09T07:10:04Z</time>
      </trkpt>
      <trkpt lat="6.902924" lon="81.063483">
        <ele>918.182</ele>
        <time>2022-02-09T08:04:38Z</time>
      </trkpt>
      <trkpt lat="6.893921" lon="81.065621">
        <ele>980.467</ele>
        <time>2022-02-09T08:25:38Z</time>
      </trkpt>
      <trkpt lat="6.894906" lon="81.067294">
        <ele>995.593</ele>
        <time>2022-02-09T08:29:07Z</time>
      </trkpt>
      <trkpt lat="6.890465" lon="81.070073">
        <ele>1030.565</ele>
        <time>2022-02-09T08:54:36Z</time>
      </trkpt>
      <trkpt lat="6.887187" lon="81.065725">
        <ele>996.221</ele>
        <time>2022-02-09T09:07:40Z</time>
      </trkpt>
      <trkpt lat="6.882265" lon="81.067604">
        <ele>999.909</ele>
        <time>2022-02-09T09:18:21Z</time>
      </trkpt>
      <trkpt lat="6.883131" lon="81.066659">
        <ele>990.220</ele>
        <time>2022-02-09T09:20:08Z</time>
      </trkpt>
      <trkpt lat="6.874405" lon="81.065975">
        <ele>1060.779</ele>
        <time>2022-02-10T05:07:19Z</time>
      </trkpt>
      <trkpt lat="6.877268" lon="81.060083">
        <ele>950.190</ele>
        <time>2022-02-10T06:37:10Z</time>
      </trkpt>
      <trkpt lat="6.873655" lon="81.057636">
        <ele>967.439</ele>
        <time>2022-02-10T06:45:55Z</time>
      </trkpt>
      <trkpt lat="6.873434" lon="81.054575">
        <ele>1022.078</ele>
        <time>2022-02-10T06:53:24Z</time>
      </trkpt>
      <trkpt lat="6.869427" lon="81.056781">
        <ele>1024.885</ele>
        <time>2022-02-10T07:04:42Z</time>
      </trkpt>
      <trkpt lat="6.869211" lon="81.060384">
        <ele>1045.848</ele>
        <time>2022-02-10T07:10:55Z</time>
      </trkpt>
      <trkpt lat="6.864505" lon="81.064121">
        <ele>1080.044</ele>
        <time>2022-02-10T07:45:30Z</time>
      </trkpt>
      <trkpt lat="6.869260" lon="81.060338">
        <ele>1049.369</ele>
        <time>2022-02-10T08:03:57Z</time>
      </trkpt>
      <trkpt lat="6.869463" lon="81.056744">
        <ele>1027.744</ele>
        <time>2022-02-10T08:10:12Z</time>
      </trkpt>
      <trkpt lat="6.872583" lon="81.056320">
        <ele>1022.205</ele>
        <time>2022-02-10T08:15:07Z</time>
      </trkpt>
      <trkpt lat="6.874003" lon="81.053288">
        <ele>1024.415</ele>
        <time>2022-02-10T08:20:19Z</time>
      </trkpt>
      <trkpt lat="6.873113" lon="81.049276">
        <ele>1001.209</ele>
        <time>2022-02-10T08:26:48Z</time>
      </trkpt>
      <trkpt lat="6.876441" lon="81.047851">
        <ele>1022.455</ele>
        <time>2022-02-10T08:35:26Z</time>
      </trkpt>
      <trkpt lat="6.871263" lon="81.045747">
        <ele>1027.664</ele>
        <time>2022-02-11T03:52:26Z</time>
      </trkpt>
      <trkpt lat="6.868469" lon="81.041438">
        <ele>1037.195</ele>
        <time>2022-02-11T04:01:00Z</time>
      </trkpt>
      <trkpt lat="6.863206" lon="81.038759">
        <ele>1061.344</ele>
        <time>2022-02-11T04:09:24Z</time>
      </trkpt>
      <trkpt lat="6.862129" lon="81.043541">
        <ele>1079.863</ele>
        <time>2022-02-11T04:17:24Z</time>
      </trkpt>
      <trkpt lat="6.857843" lon="81.044021">
        <ele>1084.580</ele>
        <time>2022-02-11T04:27:33Z</time>
      </trkpt>
      <trkpt lat="6.860662" lon="81.045145">
        <ele>1087.293</ele>
        <time>2022-02-11T04:37:34Z</time>
      </trkpt>
      <trkpt lat="6.860978" lon="81.049125">
        <ele>1125.219</ele>
        <time>2022-02-11T04:46:14Z</time>
      </trkpt>
      <trkpt lat="6.857158" lon="81.049903">
        <ele>1202.184</ele>
        <time>2022-02-11T05:05:47Z</time>
      </trkpt>
      <trkpt lat="6.855853" lon="81.052858">
        <ele>1331.293</ele>
        <time>2022-02-11T05:27:27Z</time>
      </trkpt>
      <trkpt lat="6.851190" lon="81.052483">
        <ele>1312.865</ele>
        <time>2022-02-11T05:47:37Z</time>
      </trkpt>
      <trkpt lat="6.852379" lon="81.051505">
        <ele>1329.421</ele>
        <time>2022-02-11T05:52:03Z</time>
      </trkpt>
      <trkpt lat="6.837546" lon="81.041611">
        <ele>1265.009</ele>
        <time>2022-02-11T06:38:12Z</time>
      </trkpt>
      <trkpt lat="6.838023" lon="81.040400">
        <ele>1273.350</ele>
        <time>2022-02-11T06:40:23Z</time>
      </trkpt>
      <trkpt lat="6.826262" lon="81.038997">
        <ele>1249.549</ele>
        <time>2022-02-11T07:44:51Z</time>
      </trkpt>
      <trkpt lat="6.821856" lon="81.033678">
        <ele>1323.040</ele>
        <time>2022-02-11T08:19:01Z</time>
      </trkpt>
      <trkpt lat="6.822058" lon="81.025074">
        <ele>1389.979</ele>
        <time>2022-02-11T08:36:08Z</time>
      </trkpt>
      <trkpt lat="6.820319" lon="81.023593">
        <ele>1376.788</ele>
        <time>2022-02-11T08:42:27Z</time>
      </trkpt>
      <trkpt lat="6.812737" lon="81.027206">
        <ele>1363.845</ele>
        <time>2022-02-11T09:13:59Z</time>
      </trkpt>
      <trkpt lat="6.807246" lon="81.026521">
        <ele>1361.118</ele>
        <time>2022-02-11T09:22:53Z</time>
      </trkpt>
      <trkpt lat="6.802245" lon="81.030314">
        <ele>1412.324</ele>
        <time>2022-02-11T09:45:37Z</time>
      </trkpt>
      <trkpt lat="6.801909" lon="81.026206">
        <ele>1517.419</ele>
        <time>2022-02-11T09:59:29Z</time>
      </trkpt>
      <trkpt lat="6.800864" lon="81.027422">
        <ele>1548.216</ele>
        <time>2022-02-11T10:24:44Z</time>
      </trkpt>
      <trkpt lat="6.801216" lon="81.025099">
        <ele>1548.576</ele>
        <time>2022-02-11T10:31:07Z</time>
      </trkpt>
      <trkpt lat="6.800065" lon="81.026333">
        <ele>1617.913</ele>
        <time>2022-02-11T10:35:46Z</time>
      </trkpt>
      <trkpt lat="6.800641" lon="81.024555">
        <ele>1620.309</ele>
        <time>2022-02-11T10:40:30Z</time>
      </trkpt>
      <trkpt lat="6.799446" lon="81.025879">
        <ele>1623.272</ele>
        <time>2022-02-11T10:44:48Z</time>
      </trkpt>
      <trkpt lat="6.798184" lon="81.021375">
        <ele>1811.051</ele>
        <time>2022-02-11T11:14:18Z</time>
      </trkpt>
      <trkpt lat="6.795961" lon="81.020143">
        <ele>1813.462</ele>
        <time>2022-02-11T11:20:35Z</time>
      </trkpt>
      <trkpt lat="6.795066" lon="81.007699">
        <ele>1873.851</ele>
        <time>2022-02-11T11:54:17Z</time>
      </trkpt>
      <trkpt lat="6.791526" lon="81.005098">
        <ele>1879.330</ele>
        <time>2022-02-11T12:07:45Z</time>
      </trkpt>
      <trkpt lat="6.794849" lon="81.003170">
        <ele>1895.387</ele>
        <time>2022-02-12T02:09:49Z</time>
      </trkpt>
      <trkpt lat="6.792159" lon="81.003359">
        <ele>1873.220</ele>
        <time>2022-02-12T02:14:50Z</time>
      </trkpt>
      <trkpt lat="6.796946" lon="81.000402">
        <ele>1831.496</ele>
        <time>2022-02-12T02:24:43Z</time>
      </trkpt>
      <trkpt lat="6.795404" lon="80.997501">
        <ele>1793.551</ele>
        <time>2022-02-12T02:31:22Z</time>
      </trkpt>
      <trkpt lat="6.795317" lon="80.999321">
        <ele>1782.461</ele>
        <time>2022-02-12T02:34:24Z</time>
      </trkpt>
      <trkpt lat="6.791419" lon="80.999803">
        <ele>1734.021</ele>
        <time>2022-02-12T02:42:14Z</time>
      </trkpt>
      <trkpt lat="6.791697" lon="80.987774">
        <ele>1646.613</ele>
        <time>2022-02-12T03:07:23Z</time>
      </trkpt>
      <trkpt lat="6.781913" lon="80.973546">
        <ele>1711.109</ele>
        <time>2022-02-12T04:17:18Z</time>
      </trkpt>
      <trkpt lat="6.773976" lon="80.971394">
        <ele>1722.297</ele>
        <time>2022-02-12T04:31:35Z</time>
      </trkpt>
      <trkpt lat="6.772454" lon="80.974211">
        <ele>1663.076</ele>
        <time>2022-02-12T04:46:20Z</time>
      </trkpt>
      <trkpt lat="6.773626" lon="80.974043">
        <ele>1645.437</ele>
        <time>2022-02-12T04:48:24Z</time>
      </trkpt>
      <trkpt lat="6.770632" lon="80.974655">
        <ele>1628.556</ele>
        <time>2022-02-12T04:55:14Z</time>
      </trkpt>
      <trkpt lat="6.769530" lon="80.971970">
        <ele>1640.455</ele>
        <time>2022-02-12T05:05:05Z</time>
      </trkpt>
      <trkpt lat="6.767096" lon="80.971904">
        <ele>1611.362</ele>
        <time>2022-02-12T05:21:09Z</time>
      </trkpt>
      <trkpt lat="6.768583" lon="80.971250">
        <ele>1592.875</ele>
        <time>2022-02-12T05:23:57Z</time>
      </trkpt>
      <trkpt lat="6.765827" lon="80.969989">
        <ele>1559.071</ele>
        <time>2022-02-12T05:28:49Z</time>
      </trkpt>
      <trkpt lat="6.767199" lon="80.970572">
        <ele>1552.566</ele>
        <time>2022-02-12T05:31:08Z</time>
      </trkpt>
      <trkpt lat="6.768079" lon="80.967872">
        <ele>1530.967</ele>
        <time>2022-02-12T05:38:58Z</time>
      </trkpt>
      <trkpt lat="6.766476" lon="80.967290">
        <ele>1485.481</ele>
        <time>2022-02-12T05:44:36Z</time>
      </trkpt>
      <trkpt lat="6.769046" lon="80.960839">
        <ele>1447.719</ele>
        <time>2022-02-12T05:55:34Z</time>
      </trkpt>
      <trkpt lat="6.766505" lon="80.953419">
        <ele>1447.809</ele>
        <time>2022-02-13T02:50:23Z</time>
      </trkpt>
      <trkpt lat="6.767063" lon="80.942106">
        <ele>1490.777</ele>
        <time>2022-02-13T03:08:43Z</time>
      </trkpt>
      <trkpt lat="6.764653" lon="80.939548">
        <ele>1513.836</ele>
        <time>2022-02-13T03:15:17Z</time>
      </trkpt>
      <trkpt lat="6.767699" lon="80.935056">
        <ele>1546.747</ele>
        <time>2022-02-13T03:25:31Z</time>
      </trkpt>
      <trkpt lat="6.769521" lon="80.936033">
        <ele>1541.866</ele>
        <time>2022-02-13T03:32:15Z</time>
      </trkpt>
      <trkpt lat="6.780266" lon="80.902933">
        <ele>1568.435</ele>
        <time>2022-02-14T03:51:51Z</time>
      </trkpt>
      <trkpt lat="6.778832" lon="80.901054">
        <ele>1578.042</ele>
        <time>2022-02-14T04:08:31Z</time>
      </trkpt>
      <trkpt lat="6.785425" lon="80.883020">
        <ele>1755.665</ele>
        <time>2022-02-14T05:22:36Z</time>
      </trkpt>
      <trkpt lat="6.787759" lon="80.882355">
        <ele>1792.891</ele>
        <time>2022-02-14T05:32:32Z</time>
      </trkpt>
      <trkpt lat="6.791490" lon="80.874935">
        <ele>1822.536</ele>
        <time>2022-02-14T05:51:45Z</time>
      </trkpt>
      <trkpt lat="6.790830" lon="80.871328">
        <ele>1853.033</ele>
        <time>2022-02-14T06:01:31Z</time>
      </trkpt>
      <trkpt lat="6.792992" lon="80.868299">
        <ele>1877.023</ele>
        <time>2022-02-14T06:19:00Z</time>
      </trkpt>
      <trkpt lat="6.791957" lon="80.861898">
        <ele>1935.715</ele>
        <time>2022-02-14T06:39:14Z</time>
      </trkpt>
      <trkpt lat="6.789245" lon="80.859910">
        <ele>1867.809</ele>
        <time>2022-02-14T06:48:12Z</time>
      </trkpt>
      <trkpt lat="6.790624" lon="80.861039">
        <ele>1853.734</ele>
        <time>2022-02-14T06:51:47Z</time>
      </trkpt>
      <trkpt lat="6.794506" lon="80.857000">
        <ele>1755.113</ele>
        <time>2022-02-14T07:08:33Z</time>
      </trkpt>
      <trkpt lat="6.791081" lon="80.845380">
        <ele>1651.624</ele>
        <time>2022-02-14T07:47:55Z</time>
      </trkpt>
      <trkpt lat="6.796258" lon="80.842892">
        <ele>1703.723</ele>
        <time>2022-02-14T07:59:12Z</time>
      </trkpt>
      <trkpt lat="6.795189" lon="80.842383">
        <ele>1713.922</ele>
        <time>2022-02-14T08:01:07Z</time>
      </trkpt>
      <trkpt lat="6.797897" lon="80.840157">
        <ele>1739.089</ele>
        <time>2022-02-14T08:25:38Z</time>
      </trkpt>
      <trkpt lat="6.796818" lon="80.841016">
        <ele>1784.452</ele>
        <time>2022-02-14T08:28:50Z</time>
      </trkpt>
      <trkpt lat="6.799084" lon="80.840752">
        <ele>1809.268</ele>
        <time>2022-02-14T08:35:36Z</time>
      </trkpt>
      <trkpt lat="6.797817" lon="80.841598">
        <ele>1824.923</ele>
        <time>2022-02-14T08:38:16Z</time>
      </trkpt>
      <trkpt lat="6.802297" lon="80.841095">
        <ele>1910.031</ele>
        <time>2022-02-14T08:58:36Z</time>
      </trkpt>
      <trkpt lat="6.801178" lon="80.842511">
        <ele>1932.561</ele>
        <time>2022-02-14T09:02:41Z</time>
      </trkpt>
      <trkpt lat="6.803549" lon="80.841695">
        <ele>1960.407</ele>
        <time>2022-02-14T09:08:03Z</time>
      </trkpt>
      <trkpt lat="6.802649" lon="80.842560">
        <ele>1970.309</ele>
        <time>2022-02-14T09:15:57Z</time>
      </trkpt>
      <trkpt lat="6.805365" lon="80.840856">
        <ele>1994.364</ele>
        <time>2022-02-14T09:25:00Z</time>
      </trkpt>
      <trkpt lat="6.805080" lon="80.842551">
        <ele>2039.293</ele>
        <time>2022-02-14T09:28:45Z</time>
      </trkpt>
      <trkpt lat="6.808093" lon="80.838865">
        <ele>2151.424</ele>
        <time>2022-02-14T09:53:02Z</time>
      </trkpt>
      <trkpt lat="6.805530" lon="80.833019">
        <ele>2162.143</ele>
        <time>2022-02-15T00:51:26Z</time>
      </trkpt>
      <trkpt lat="6.802865" lon="80.832658">
        <ele>2162.232</ele>
        <time>2022-02-15T00:52:06Z</time>
      </trkpt>
      <trkpt lat="6.801329" lon="80.834595">
        <ele>2162.299</ele>
        <time>2022-02-15T00:52:36Z</time>
      </trkpt>
      <trkpt lat="6.793300" lon="80.824719">
        <ele>2161.512</ele>
        <time>2022-02-15T00:55:36Z</time>
      </trkpt>
      <trkpt lat="6.794997" lon="80.822785">
        <ele>2161.858</ele>
        <time>2022-02-15T00:56:06Z</time>
      </trkpt>
      <trkpt lat="6.793937" lon="80.820395">
        <ele>2135.223</ele>
        <time>2022-02-15T00:56:56Z</time>
      </trkpt>
      <trkpt lat="6.798510" lon="80.816461">
        <ele>2119.857</ele>
        <time>2022-02-15T00:59:57Z</time>
      </trkpt>
      <trkpt lat="6.797787" lon="80.814215">
        <ele>2125.200</ele>
        <time>2022-02-15T01:02:20Z</time>
      </trkpt>
      <trkpt lat="6.802221" lon="80.806749">
        <ele>2125.420</ele>
        <time>2022-02-15T01:05:01Z</time>
      </trkpt>
      <trkpt lat="6.789526" lon="80.805323">
        <ele>2125.409</ele>
        <time>2022-02-15T01:31:57Z</time>
      </trkpt>
      <trkpt lat="6.788776" lon="80.801850">
        <ele>2127.346</ele>
        <time>2022-02-15T01:36:41Z</time>
      </trkpt>
      <trkpt lat="6.782814" lon="80.797232">
        <ele>2122.535</ele>
        <time>2022-02-15T02:04:48Z</time>
      </trkpt>
      <trkpt lat="6.783365" lon="80.794790">
        <ele>2118.836</ele>
        <time>2022-02-15T02:11:06Z</time>
      </trkpt>
      <trkpt lat="6.780051" lon="80.794058">
        <ele>2113.075</ele>
        <time>2022-02-15T02:23:18Z</time>
      </trkpt>
      <trkpt lat="6.787414" lon="80.787703">
        <ele>2073.644</ele>
        <time>2022-02-15T02:44:59Z</time>
      </trkpt>
      <trkpt lat="6.792429" lon="80.789772">
        <ele>2064.211</ele>
        <time>2022-02-15T03:10:40Z</time>
      </trkpt>
      <trkpt lat="6.793423" lon="80.793436">
        <ele>2074.074</ele>
        <time>2022-02-15T03:20:38Z</time>
      </trkpt>
      <trkpt lat="6.791543" lon="80.799310">
        <ele>2090.460</ele>
        <time>2022-02-15T03:28:49Z</time>
      </trkpt>
      <trkpt lat="6.793007" lon="80.802823">
        <ele>2093.885</ele>
        <time>2022-02-15T03:35:39Z</time>
      </trkpt>
      <trkpt lat="6.802972" lon="80.807139">
        <ele>2128.257</ele>
        <time>2022-02-15T04:33:53Z</time>
      </trkpt>
      <trkpt lat="6.811047" lon="80.801763">
        <ele>2125.000</ele>
        <time>2022-02-15T04:49:40Z</time>
      </trkpt>
      <trkpt lat="6.822001" lon="80.788162">
        <ele>2000.020</ele>
        <time>2022-02-15T05:31:15Z</time>
      </trkpt>
      <trkpt lat="6.822335" lon="80.784309">
        <ele>2003.609</ele>
        <time>2022-02-15T05:37:46Z</time>
      </trkpt>
      <trkpt lat="6.828541" lon="80.781333">
        <ele>1890.336</ele>
        <time>2022-02-15T06:56:31Z</time>
      </trkpt>
      <trkpt lat="6.829354" lon="80.782476">
        <ele>1889.075</ele>
        <time>2022-02-15T06:58:53Z</time>
      </trkpt>
      <trkpt lat="6.828696" lon="80.779764">
        <ele>1887.616</ele>
        <time>2022-02-15T07:03:41Z</time>
      </trkpt>
      <trkpt lat="6.831197" lon="80.781724">
        <ele>1860.795</ele>
        <time>2022-02-15T07:09:08Z</time>
      </trkpt>
      <trkpt lat="6.829945" lon="80.779456">
        <ele>1841.874</ele>
        <time>2022-02-15T07:12:40Z</time>
      </trkpt>
      <trkpt lat="6.833533" lon="80.780279">
        <ele>1826.051</ele>
        <time>2022-02-15T07:17:25Z</time>
      </trkpt>
      <trkpt lat="6.835324" lon="80.772435">
        <ele>1747.094</ele>
        <time>2022-02-15T07:28:34Z</time>
      </trkpt>
      <trkpt lat="6.839600" lon="80.767939">
        <ele>1679.360</ele>
        <time>2022-02-15T07:39:20Z</time>
      </trkpt>
      <trkpt lat="6.838952" lon="80.770221">
        <ele>1674.595</ele>
        <time>2022-02-15T07:43:49Z</time>
      </trkpt>
      <trkpt lat="6.841802" lon="80.768506">
        <ele>1625.421</ele>
        <time>2022-02-15T07:49:17Z</time>
      </trkpt>
      <trkpt lat="6.846337" lon="80.758909">
        <ele>1488.841</ele>
        <time>2022-02-15T08:33:35Z</time>
      </trkpt>
      <trkpt lat="6.845438" lon="80.757936">
        <ele>1488.905</ele>
        <time>2022-02-15T08:35:17Z</time>
      </trkpt>
      <trkpt lat="6.850213" lon="80.755346">
        <ele>1476.109</ele>
        <time>2022-02-15T08:44:58Z</time>
      </trkpt>
      <trkpt lat="6.850002" lon="80.752201">
        <ele>1468.183</ele>
        <time>2022-02-15T08:52:13Z</time>
      </trkpt>
      <trkpt lat="6.852456" lon="80.754220">
        <ele>1461.452</ele>
        <time>2022-02-15T08:56:28Z</time>
      </trkpt>
      <trkpt lat="6.851634" lon="80.751536">
        <ele>1459.073</ele>
        <time>2022-02-15T09:02:40Z</time>
      </trkpt>
      <trkpt lat="6.854310" lon="80.751877">
        <ele>1450.492</ele>
        <time>2022-02-15T09:07:39Z</time>
      </trkpt>
      <trkpt lat="6.855872" lon="80.746115">
        <ele>1426.861</ele>
        <time>2022-02-15T09:51:06Z</time>
      </trkpt>
      <trkpt lat="6.848904" lon="80.749344">
        <ele>1448.438</ele>
        <time>2022-02-15T10:07:07Z</time>
      </trkpt>
      <trkpt lat="6.849536" lon="80.750497">
        <ele>1467.341</ele>
        <time>2022-02-15T10:09:24Z</time>
      </trkpt>
      <trkpt lat="6.841974" lon="80.747430">
        <ele>1542.017</ele>
        <time>2022-02-15T10:24:55Z</time>
      </trkpt>
      <trkpt lat="6.843967" lon="80.743791">
        <ele>1616.642</ele>
        <time>2022-02-15T10:38:56Z</time>
      </trkpt>
      <trkpt lat="6.843537" lon="80.731910">
        <ele>1604.826</ele>
        <time>2022-02-15T10:56:35Z</time>
      </trkpt>
      <trkpt lat="6.840162" lon="80.730229">
        <ele>1582.747</ele>
        <time>2022-02-15T11:02:48Z</time>
      </trkpt>
      <trkpt lat="6.841159" lon="80.721171">
        <ele>1518.611</ele>
        <time>2022-02-15T11:26:51Z</time>
      </trkpt>
      <trkpt lat="6.836985" lon="80.725624">
        <ele>1520.309</ele>
        <time>2022-02-15T11:35:47Z</time>
      </trkpt>
      <trkpt lat="6.833194" lon="80.726529">
        <ele>1538.573</ele>
        <time>2022-02-15T11:41:25Z</time>
      </trkpt>
      <trkpt lat="6.833351" lon="80.724700">
        <ele>1538.672</ele>
        <time>2022-02-15T11:44:31Z</time>
      </trkpt>
      <trkpt lat="6.831400" lon="80.723875">
        <ele>1537.593</ele>
        <time>2022-02-15T11:54:36Z</time>
      </trkpt>
      <trkpt lat="6.832322" lon="80.722993">
        <ele>1536.952</ele>
        <time>2022-02-15T11:56:21Z</time>
      </trkpt>
      <trkpt lat="6.821574" lon="80.713737">
        <ele>1570.821</ele>
        <time>2022-02-15T12:33:18Z</time>
      </trkpt>
      <trkpt lat="6.816340" lon="80.711320">
        <ele>1579.558</ele>
        <time>2022-02-15T12:43:53Z</time>
      </trkpt>
      <trkpt lat="6.812247" lon="80.701290">
        <ele>1571.371</ele>
        <time>2022-02-16T02:25:48Z</time>
      </trkpt>
      <trkpt lat="6.804506" lon="80.692348">
        <ele>1481.447</ele>
        <time>2022-02-16T03:19:13Z</time>
      </trkpt>
      <trkpt lat="6.803337" lon="80.693569">
        <ele>1481.462</ele>
        <time>2022-02-16T03:21:39Z</time>
      </trkpt>
      <trkpt lat="6.804128" lon="80.691304">
        <ele>1476.623</ele>
        <time>2022-02-16T03:25:37Z</time>
      </trkpt>
      <trkpt lat="6.800895" lon="80.686705">
        <ele>1446.283</ele>
        <time>2022-02-16T03:35:46Z</time>
      </trkpt>
      <trkpt lat="6.799404" lon="80.686952">
        <ele>1433.011</ele>
        <time>2022-02-16T03:38:02Z</time>
      </trkpt>
      <trkpt lat="6.800131" lon="80.684258">
        <ele>1410.609</ele>
        <time>2022-02-16T03:42:05Z</time>
      </trkpt>
      <trkpt lat="6.796958" lon="80.685203">
        <ele>1329.153</ele>
        <time>2022-02-16T03:47:20Z</time>
      </trkpt>
      <trkpt lat="6.798273" lon="80.680011">
        <ele>1324.292</ele>
        <time>2022-02-16T03:55:18Z</time>
      </trkpt>
      <trkpt lat="6.796049" lon="80.678547">
        <ele>1320.963</ele>
        <time>2022-02-16T03:59:17Z</time>
      </trkpt>
      <trkpt lat="6.798409" lon="80.672838">
        <ele>1302.332</ele>
        <time>2022-02-16T04:49:30Z</time>
      </trkpt>
      <trkpt lat="6.796841" lon="80.672923">
        <ele>1302.341</ele>
        <time>2022-02-16T04:52:21Z</time>
      </trkpt>
      <trkpt lat="6.801282" lon="80.668686">
        <ele>1331.098</ele>
        <time>2022-02-16T05:05:25Z</time>
      </trkpt>
      <trkpt lat="6.802299" lon="80.655821">
        <ele>1406.851</ele>
        <time>2022-02-16T06:21:19Z</time>
      </trkpt>
      <trkpt lat="6.798491" lon="80.655604">
        <ele>1446.447</ele>
        <time>2022-02-16T06:38:47Z</time>
      </trkpt>
      <trkpt lat="6.797764" lon="80.652445">
        <ele>1445.352</ele>
        <time>2022-02-16T06:48:14Z</time>
      </trkpt>
      <trkpt lat="6.800505" lon="80.649300">
        <ele>1441.279</ele>
        <time>2022-02-16T06:55:46Z</time>
      </trkpt>
      <trkpt lat="6.803852" lon="80.637848">
        <ele>1467.205</ele>
        <time>2022-02-16T07:20:00Z</time>
      </trkpt>
      <trkpt lat="6.809992" lon="80.626663">
        <ele>1517.825</ele>
        <time>2022-02-16T08:23:00Z</time>
      </trkpt>
      <trkpt lat="6.808954" lon="80.625637">
        <ele>1516.109</ele>
        <time>2022-02-16T08:25:47Z</time>
      </trkpt>
      <trkpt lat="6.813279" lon="80.619424">
        <ele>1455.248</ele>
        <time>2022-02-16T08:52:45Z</time>
      </trkpt>
      <trkpt lat="6.812674" lon="80.615740">
        <ele>1454.837</ele>
        <time>2022-02-16T08:59:06Z</time>
      </trkpt>
      <trkpt lat="6.818501" lon="80.609847">
        <ele>1471.358</ele>
        <time>2022-02-16T09:11:27Z</time>
      </trkpt>
      <trkpt lat="6.823673" lon="80.607826">
        <ele>1449.557</ele>
        <time>2022-02-16T09:22:07Z</time>
      </trkpt>
      <trkpt lat="6.824367" lon="80.605210">
        <ele>1413.866</ele>
        <time>2022-02-16T09:38:34Z</time>
      </trkpt>
      <trkpt lat="6.825820" lon="80.605664">
        <ele>1411.073</ele>
        <time>2022-02-16T09:41:18Z</time>
      </trkpt>
      <trkpt lat="6.827006" lon="80.602205">
        <ele>1400.956</ele>
        <time>2022-02-16T09:49:59Z</time>
      </trkpt>
      <trkpt lat="6.829103" lon="80.602099">
        <ele>1392.042</ele>
        <time>2022-02-16T09:54:59Z</time>
      </trkpt>
      <trkpt lat="6.837826" lon="80.614504">
        <ele>1121.127</ele>
        <time>2022-02-16T10:28:49Z</time>
      </trkpt>
      <trkpt lat="6.839925" lon="80.612182">
        <ele>1121.698</ele>
        <time>2022-02-18T06:55:01Z</time>
      </trkpt>
      <trkpt lat="6.849332" lon="80.613703">
        <ele>1247.915</ele>
        <time>2022-02-18T07:44:31Z</time>
      </trkpt>
      <trkpt lat="6.851562" lon="80.611949">
        <ele>1275.226</ele>
        <time>2022-02-18T07:49:15Z</time>
      </trkpt>
      <trkpt lat="6.860951" lon="80.612765">
        <ele>1301.209</ele>
        <time>2022-02-18T08:08:14Z</time>
      </trkpt>
      <trkpt lat="6.862441" lon="80.616236">
        <ele>1305.420</ele>
        <time>2022-02-18T08:13:43Z</time>
      </trkpt>
      <trkpt lat="6.867076" lon="80.615711">
        <ele>1302.899</ele>
        <time>2022-02-18T08:22:56Z</time>
      </trkpt>
      <trkpt lat="6.868559" lon="80.612443">
        <ele>1303.130</ele>
        <time>2022-02-18T08:28:57Z</time>
      </trkpt>
      <trkpt lat="6.870321" lon="80.613778">
        <ele>1267.529</ele>
        <time>2022-02-18T08:32:12Z</time>
      </trkpt>
      <trkpt lat="6.871131" lon="80.612614">
        <ele>1262.918</ele>
        <time>2022-02-18T08:34:12Z</time>
      </trkpt>
      <trkpt lat="6.873278" lon="80.614411">
        <ele>1240.265</ele>
        <time>2022-02-18T08:39:57Z</time>
      </trkpt>
      <trkpt lat="6.882359" lon="80.610078">
        <ele>1244.648</ele>
        <time>2022-02-18T09:39:04Z</time>
      </trkpt>
      <trkpt lat="6.883795" lon="80.605712">
        <ele>1257.644</ele>
        <time>2022-02-18T09:46:22Z</time>
      </trkpt>
      <trkpt lat="6.890827" lon="80.599427">
        <ele>1255.159</ele>
        <time>2022-02-18T10:07:52Z</time>
      </trkpt>
      <trkpt lat="6.894011" lon="80.600348">
        <ele>1274.211</ele>
        <time>2022-02-20T02:32:13Z</time>
      </trkpt>
      <trkpt lat="6.897408" lon="80.606239">
        <ele>1274.221</ele>
        <time>2022-02-20T02:46:14Z</time>
      </trkpt>
      <trkpt lat="6.897008" lon="80.609207">
        <ele>1279.803</ele>
        <time>2022-02-20T02:51:36Z</time>
      </trkpt>
      <trkpt lat="6.899261" lon="80.609626">
        <ele>1282.109</ele>
        <time>2022-02-20T02:55:29Z</time>
      </trkpt>
      <trkpt lat="6.906028" lon="80.603491">
        <ele>1324.472</ele>
        <time>2022-02-20T03:08:22Z</time>
      </trkpt>
      <trkpt lat="6.910279" lon="80.606533">
        <ele>1320.281</ele>
        <time>2022-02-20T03:17:34Z</time>
      </trkpt>
      <trkpt lat="6.911819" lon="80.605695">
        <ele>1302.262</ele>
        <time>2022-02-20T03:19:56Z</time>
      </trkpt>
      <trkpt lat="6.922883" lon="80.612167">
        <ele>1260.931</ele>
        <time>2022-02-20T03:39:05Z</time>
      </trkpt>
      <trkpt lat="6.927771" lon="80.618196">
        <ele>1244.470</ele>
        <time>2022-02-20T04:04:26Z</time>
      </trkpt>
      <trkpt lat="6.926527" lon="80.620758">
        <ele>1239.917</ele>
        <time>2022-02-20T04:09:23Z</time>
      </trkpt>
      <trkpt lat="6.934386" lon="80.627965">
        <ele>1309.450</ele>
        <time>2022-02-20T04:40:52Z</time>
      </trkpt>
      <trkpt lat="6.933787" lon="80.629618">
        <ele>1320.836</ele>
        <time>2022-02-20T04:48:10Z</time>
      </trkpt>
      <trkpt lat="6.936715" lon="80.631687">
        <ele>1319.191</ele>
        <time>2022-02-20T04:53:36Z</time>
      </trkpt>
      <trkpt lat="6.935432" lon="80.632581">
        <ele>1318.668</ele>
        <time>2022-02-20T04:56:54Z</time>
      </trkpt>
      <trkpt lat="6.936887" lon="80.638744">
        <ele>1275.842</ele>
        <time>2022-02-20T05:10:12Z</time>
      </trkpt>
      <trkpt lat="6.931410" lon="80.641548">
        <ele>1281.826</ele>
        <time>2022-02-20T05:31:44Z</time>
      </trkpt>
      <trkpt lat="6.932908" lon="80.642673">
        <ele>1282.609</ele>
        <time>2022-02-20T05:34:49Z</time>
      </trkpt>
      <trkpt lat="6.929133" lon="80.649726">
        <ele>1306.737</ele>
        <time>2022-02-20T05:47:11Z</time>
      </trkpt>
      <trkpt lat="6.934617" lon="80.655780">
        <ele>1291.956</ele>
        <time>2022-02-20T06:00:36Z</time>
      </trkpt>
      <trkpt lat="6.933787" lon="80.656751">
        <ele>1288.927</ele>
        <time>2022-02-20T06:02:46Z</time>
      </trkpt>
      <trkpt lat="6.939465" lon="80.660558">
        <ele>1269.556</ele>
        <time>2022-02-20T06:12:09Z</time>
      </trkpt>
      <trkpt lat="6.938074" lon="80.661739">
        <ele>1268.095</ele>
        <time>2022-02-20T06:15:31Z</time>
      </trkpt>
      <trkpt lat="6.941234" lon="80.662967">
        <ele>1238.732</ele>
        <time>2022-02-20T06:31:11Z</time>
      </trkpt>
      <trkpt lat="6.944528" lon="80.661707">
        <ele>1212.345</ele>
        <time>2022-02-20T06:49:01Z</time>
      </trkpt>
      <trkpt lat="6.948156" lon="80.664414">
        <ele>1216.791</ele>
        <time>2022-02-20T06:56:41Z</time>
      </trkpt>
      <trkpt lat="6.951556" lon="80.664390">
        <ele>1226.186</ele>
        <time>2022-02-20T07:02:39Z</time>
      </trkpt>
      <trkpt lat="6.951204" lon="80.663008">
        <ele>1228.294</ele>
        <time>2022-02-20T07:04:58Z</time>
      </trkpt>
      <trkpt lat="6.954283" lon="80.664041">
        <ele>1261.457</ele>
        <time>2022-02-20T07:18:45Z</time>
      </trkpt>
      <trkpt lat="6.957940" lon="80.660786">
        <ele>1305.022</ele>
        <time>2022-02-20T07:43:20Z</time>
      </trkpt>
      <trkpt lat="6.960505" lon="80.662365">
        <ele>1306.309</ele>
        <time>2022-02-20T07:48:09Z</time>
      </trkpt>
      <trkpt lat="6.962830" lon="80.659259">
        <ele>1312.210</ele>
        <time>2022-02-20T07:55:09Z</time>
      </trkpt>
      <trkpt lat="6.967613" lon="80.661007">
        <ele>1316.469</ele>
        <time>2022-02-20T08:04:40Z</time>
      </trkpt>
      <trkpt lat="6.966845" lon="80.655734">
        <ele>1344.870</ele>
        <time>2022-02-20T08:20:53Z</time>
      </trkpt>
      <trkpt lat="6.969194" lon="80.654701">
        <ele>1345.799</ele>
        <time>2022-02-20T08:24:40Z</time>
      </trkpt>
      <trkpt lat="6.968033" lon="80.652583">
        <ele>1346.498</ele>
        <time>2022-02-20T08:27:55Z</time>
      </trkpt>
      <trkpt lat="6.974482" lon="80.649896">
        <ele>1344.525</ele>
        <time>2022-02-20T08:39:45Z</time>
      </trkpt>
      <trkpt lat="6.976167" lon="80.651495">
        <ele>1298.378</ele>
        <time>2022-02-20T09:34:35Z</time>
      </trkpt>
      <trkpt lat="6.981759" lon="80.649450">
        <ele>1296.874</ele>
        <time>2022-02-20T09:45:33Z</time>
      </trkpt>
      <trkpt lat="6.984111" lon="80.644875">
        <ele>1220.269</ele>
        <time>2022-02-20T09:56:44Z</time>
      </trkpt>
      <trkpt lat="6.989832" lon="80.647937">
        <ele>1154.568</ele>
        <time>2022-02-20T10:10:19Z</time>
      </trkpt>
      <trkpt lat="6.992239" lon="80.645313">
        <ele>1153.742</ele>
        <time>2022-02-20T10:16:51Z</time>
      </trkpt>
      <trkpt lat="7.000212" lon="80.642528">
        <ele>1135.626</ele>
        <time>2022-02-20T10:28:02Z</time>
      </trkpt>
      <trkpt lat="7.012838" lon="80.642735">
        <ele>982.609</ele>
        <time>2022-02-20T10:44:46Z</time>
      </trkpt>
      <trkpt lat="7.017213" lon="80.641070">
        <ele>948.187</ele>
        <time>2022-02-20T10:52:25Z</time>
      </trkpt>
      <trkpt lat="7.021522" lon="80.642968">
        <ele>845.286</ele>
        <time>2022-02-20T11:12:40Z</time>
      </trkpt>
      <trkpt lat="7.021045" lon="80.650786">
        <ele>849.917</ele>
        <time>2022-02-20T11:26:25Z</time>
      </trkpt>
      <trkpt lat="7.022293" lon="80.649127">
        <ele>871.186</ele>
        <time>2022-02-20T11:30:37Z</time>
      </trkpt>
      <trkpt lat="7.025026" lon="80.649383">
        <ele>870.545</ele>
        <time>2022-02-20T11:35:36Z</time>
      </trkpt>
      <trkpt lat="7.023843" lon="80.654250">
        <ele>830.062</ele>
        <time>2022-02-20T11:50:36Z</time>
      </trkpt>
      <trkpt lat="7.026161" lon="80.654654">
        <ele>957.095</ele>
        <time>2022-02-21T05:26:52Z</time>
      </trkpt>
      <trkpt lat="7.025059" lon="80.656830">
        <ele>830.891</ele>
        <time>2022-02-21T05:34:17Z</time>
      </trkpt>
      <trkpt lat="7.028192" lon="80.657938">
        <ele>857.216</ele>
        <time>2022-02-21T05:42:59Z</time>
      </trkpt>
      <trkpt lat="7.032714" lon="80.656737">
        <ele>890.081</ele>
        <time>2022-02-21T05:49:51Z</time>
      </trkpt>
      <trkpt lat="7.044315" lon="80.668147">
        <ele>999.261</ele>
        <time>2022-02-21T06:27:36Z</time>
      </trkpt>
      <trkpt lat="7.045838" lon="80.667832">
        <ele>1038.917</ele>
        <time>2022-02-21T06:29:39Z</time>
      </trkpt>
      <trkpt lat="7.047145" lon="80.671412">
        <ele>1043.509</ele>
        <time>2022-02-21T06:39:51Z</time>
      </trkpt>
      <trkpt lat="7.047190" lon="80.670191">
        <ele>1042.579</ele>
        <time>2022-02-21T06:42:11Z</time>
      </trkpt>
      <trkpt lat="7.047572" lon="80.671986">
        <ele>954.438</ele>
        <time>2022-02-21T07:05:21Z</time>
      </trkpt>
      <trkpt lat="7.048842" lon="80.671061">
        <ele>947.659</ele>
        <time>2022-02-21T07:07:36Z</time>
      </trkpt>
      <trkpt lat="7.048373" lon="80.678908">
        <ele>925.268</ele>
        <time>2022-02-21T07:19:57Z</time>
      </trkpt>
      <trkpt lat="7.050410" lon="80.682061">
        <ele>924.187</ele>
        <time>2022-02-21T07:27:42Z</time>
      </trkpt>
      <trkpt lat="7.053135" lon="80.681580">
        <ele>914.714</ele>
        <time>2022-02-21T07:32:07Z</time>
      </trkpt>
      <trkpt lat="7.052045" lon="80.683232">
        <ele>910.267</ele>
        <time>2022-02-21T07:36:01Z</time>
      </trkpt>
      <trkpt lat="7.055056" lon="80.682561">
        <ele>862.643</ele>
        <time>2022-02-21T07:42:43Z</time>
      </trkpt>
      <trkpt lat="7.055025" lon="80.687983">
        <ele>818.088</ele>
        <time>2022-02-21T07:50:11Z</time>
      </trkpt>
      <trkpt lat="7.059828" lon="80.682578">
        <ele>774.859</ele>
        <time>2022-02-21T08:17:45Z</time>
      </trkpt>
      <trkpt lat="7.062397" lon="80.685094">
        <ele>784.103</ele>
        <time>2022-02-21T08:24:34Z</time>
      </trkpt>
      <trkpt lat="7.064499" lon="80.683832">
        <ele>844.723</ele>
        <time>2022-02-21T08:46:36Z</time>
      </trkpt>
      <trkpt lat="7.064735" lon="80.688259">
        <ele>844.709</ele>
        <time>2022-02-21T08:57:01Z</time>
      </trkpt>
      <trkpt lat="7.066688" lon="80.688575">
        <ele>844.686</ele>
        <time>2022-02-21T09:02:40Z</time>
      </trkpt>
      <trkpt lat="7.069119" lon="80.682893">
        <ele>956.855</ele>
        <time>2022-02-21T09:49:55Z</time>
      </trkpt>
      <trkpt lat="7.071351" lon="80.681859">
        <ele>964.516</ele>
        <time>2022-02-21T09:55:20Z</time>
      </trkpt>
      <trkpt lat="7.068815" lon="80.688555">
        <ele>984.495</ele>
        <time>2022-02-21T10:07:36Z</time>
      </trkpt>
      <trkpt lat="7.072839" lon="80.688597">
        <ele>1005.954</ele>
        <time>2022-02-21T10:17:40Z</time>
      </trkpt>
      <trkpt lat="7.073613" lon="80.683867">
        <ele>1131.871</ele>
        <time>2022-02-21T10:31:00Z</time>
      </trkpt>
      <trkpt lat="7.086538" lon="80.680021">
        <ele>1265.974</ele>
        <time>2022-02-22T03:32:58Z</time>
      </trkpt>
      <trkpt lat="7.087292" lon="80.676997">
        <ele>1268.570</ele>
        <time>2022-02-22T03:38:06Z</time>
      </trkpt>
      <trkpt lat="7.087856" lon="80.678892">
        <ele>1271.255</ele>
        <time>2022-02-22T03:41:42Z</time>
      </trkpt>
      <trkpt lat="7.088283" lon="80.676556">
        <ele>1332.683</ele>
        <time>2022-02-22T04:11:36Z</time>
      </trkpt>
      <trkpt lat="7.089162" lon="80.678625">
        <ele>1332.625</ele>
        <time>2022-02-22T04:16:00Z</time>
      </trkpt>
      <trkpt lat="7.089313" lon="80.676960">
        <ele>1332.617</ele>
        <time>2022-02-22T04:19:39Z</time>
      </trkpt>
      <trkpt lat="7.089749" lon="80.678321">
        <ele>1340.709</ele>
        <time>2022-02-22T04:22:15Z</time>
      </trkpt>
      <trkpt lat="7.090406" lon="80.677328">
        <ele>1375.879</ele>
        <time>2022-02-22T04:25:08Z</time>
      </trkpt>
      <trkpt lat="7.090114" lon="80.678725">
        <ele>1383.498</ele>
        <time>2022-02-22T04:27:33Z</time>
      </trkpt>
      <trkpt lat="7.091299" lon="80.677626">
        <ele>1399.049</ele>
        <time>2022-02-22T04:30:28Z</time>
      </trkpt>
      <trkpt lat="7.090166" lon="80.682252">
        <ele>1431.378</ele>
        <time>2022-02-22T04:38:40Z</time>
      </trkpt>
      <trkpt lat="7.094474" lon="80.684153">
        <ele>1453.037</ele>
        <time>2022-02-22T04:46:01Z</time>
      </trkpt>
      <trkpt lat="7.094909" lon="80.685956">
        <ele>1448.394</ele>
        <time>2022-02-22T04:49:42Z</time>
      </trkpt>
      <trkpt lat="7.096557" lon="80.685198">
        <ele>1454.527</ele>
        <time>2022-02-22T04:54:12Z</time>
      </trkpt>
      <trkpt lat="7.098896" lon="80.687492">
        <ele>1433.613</ele>
        <time>2022-02-22T04:59:54Z</time>
      </trkpt>
      <trkpt lat="7.101745" lon="80.684907">
        <ele>1389.318</ele>
        <time>2022-02-22T05:20:46Z</time>
      </trkpt>
      <trkpt lat="7.104487" lon="80.684911">
        <ele>1387.659</ele>
        <time>2022-02-22T05:26:02Z</time>
      </trkpt>
      <trkpt lat="7.105895" lon="80.689791">
        <ele>1359.703</ele>
        <time>2022-02-22T05:36:53Z</time>
      </trkpt>
      <trkpt lat="7.109993" lon="80.693681">
        <ele>1366.223</ele>
        <time>2022-02-22T05:47:04Z</time>
      </trkpt>
      <trkpt lat="7.108175" lon="80.694335">
        <ele>1369.209</ele>
        <time>2022-02-22T05:51:33Z</time>
      </trkpt>
      <trkpt lat="7.111627" lon="80.694550">
        <ele>1438.426</ele>
        <time>2022-02-22T06:16:17Z</time>
      </trkpt>
      <trkpt lat="7.110168" lon="80.696451">
        <ele>1439.255</ele>
        <time>2022-02-22T06:21:19Z</time>
      </trkpt>
      <trkpt lat="7.111811" lon="80.695462">
        <ele>1439.296</ele>
        <time>2022-02-22T06:24:43Z</time>
      </trkpt>
      <trkpt lat="7.111130" lon="80.696582">
        <ele>1439.185</ele>
        <time>2022-02-22T06:28:46Z</time>
      </trkpt>
      <trkpt lat="7.113555" lon="80.697196">
        <ele>1576.364</ele>
        <time>2022-02-22T06:41:39Z</time>
      </trkpt>
      <trkpt lat="7.113270" lon="80.702146">
        <ele>1510.441</ele>
        <time>2022-02-22T06:53:22Z</time>
      </trkpt>
      <trkpt lat="7.117820" lon="80.704630">
        <ele>1443.634</ele>
        <time>2022-02-22T07:08:31Z</time>
      </trkpt>
      <trkpt lat="7.117679" lon="80.706339">
        <ele>1437.250</ele>
        <time>2022-02-22T07:10:48Z</time>
      </trkpt>
      <trkpt lat="7.118629" lon="80.704883">
        <ele>1433.985</ele>
        <time>2022-02-22T07:13:25Z</time>
      </trkpt>
      <trkpt lat="7.118217" lon="80.706800">
        <ele>1430.039</ele>
        <time>2022-02-22T07:16:15Z</time>
      </trkpt>
      <trkpt lat="7.119255" lon="80.705690">
        <ele>1428.401</ele>
        <time>2022-02-22T07:18:20Z</time>
      </trkpt>
      <trkpt lat="7.123412" lon="80.710818">
        <ele>1287.321</ele>
        <time>2022-02-22T08:04:22Z</time>
      </trkpt>
      <trkpt lat="7.127638" lon="80.712937">
        <ele>1240.109</ele>
        <time>2022-02-22T08:13:46Z</time>
      </trkpt>
      <trkpt lat="7.127064" lon="80.710493">
        <ele>1170.474</ele>
        <time>2022-02-22T08:30:01Z</time>
      </trkpt>
      <trkpt lat="7.128546" lon="80.710137">
        <ele>1169.593</ele>
        <time>2022-02-22T08:36:55Z</time>
      </trkpt>
      <trkpt lat="7.126813" lon="80.709528">
        <ele>1168.314</ele>
        <time>2022-02-22T08:40:49Z</time>
      </trkpt>
      <trkpt lat="7.132857" lon="80.705885">
        <ele>1264.413</ele>
        <time>2022-02-22T08:57:16Z</time>
      </trkpt>
      <trkpt lat="7.141598" lon="80.706659">
        <ele>1288.892</ele>
        <time>2022-02-22T09:24:59Z</time>
      </trkpt>
      <trkpt lat="7.145240" lon="80.701647">
        <ele>1357.489</ele>
        <time>2022-02-22T09:41:31Z</time>
      </trkpt>
      <trkpt lat="7.148322" lon="80.701222">
        <ele>1377.392</ele>
        <time>2022-02-22T09:51:39Z</time>
      </trkpt>
      <trkpt lat="7.146056" lon="80.704944">
        <ele>1383.838</ele>
        <time>2022-02-22T10:03:21Z</time>
      </trkpt>
      <trkpt lat="7.151635" lon="80.698279">
        <ele>1380.743</ele>
        <time>2022-02-22T10:24:14Z</time>
      </trkpt>
      <trkpt lat="7.157304" lon="80.697888">
        <ele>1346.898</ele>
        <time>2022-02-22T10:36:35Z</time>
      </trkpt>
      <trkpt lat="7.162094" lon="80.694073">
        <ele>1342.115</ele>
        <time>2022-02-22T10:45:38Z</time>
      </trkpt>
      <trkpt lat="7.161221" lon="80.695810">
        <ele>1343.726</ele>
        <time>2022-02-22T10:49:04Z</time>
      </trkpt>
      <trkpt lat="7.165760" lon="80.693187">
        <ele>1185.609</ele>
        <time>2022-02-22T11:20:56Z</time>
      </trkpt>
      <trkpt lat="7.170372" lon="80.693728">
        <ele>1169.750</ele>
        <time>2022-02-22T11:30:02Z</time>
      </trkpt>
      <trkpt lat="7.174081" lon="80.697257">
        <ele>1116.939</ele>
        <time>2022-02-22T11:41:09Z</time>
      </trkpt>
      <trkpt lat="7.181310" lon="80.694691">
        <ele>1012.850</ele>
        <time>2022-02-23T02:46:15Z</time>
      </trkpt>
      <trkpt lat="7.182206" lon="80.691233">
        <ele>1012.849</ele>
        <time>2022-02-23T02:53:16Z</time>
      </trkpt>
      <trkpt lat="7.184155" lon="80.692980">
        <ele>1017.298</ele>
        <time>2022-02-23T02:57:21Z</time>
      </trkpt>
      <trkpt lat="7.192421" lon="80.692286">
        <ele>961.615</ele>
        <time>2022-02-23T03:10:46Z</time>
      </trkpt>
      <trkpt lat="7.193335" lon="80.684563">
        <ele>944.918</ele>
        <time>2022-02-23T03:40:11Z</time>
      </trkpt>
      <trkpt lat="7.194426" lon="80.685588">
        <ele>944.964</ele>
        <time>2022-02-23T03:42:50Z</time>
      </trkpt>
      <trkpt lat="7.195904" lon="80.681948">
        <ele>910.729</ele>
        <time>2022-02-23T03:48:12Z</time>
      </trkpt>
      <trkpt lat="7.194753" lon="80.680500">
        <ele>889.049</ele>
        <time>2022-02-23T03:50:26Z</time>
      </trkpt>
      <trkpt lat="7.197371" lon="80.668584">
        <ele>811.502</ele>
        <time>2022-02-23T04:13:47Z</time>
      </trkpt>
      <trkpt lat="7.201142" lon="80.665915">
        <ele>816.222</ele>
        <time>2022-02-23T04:21:06Z</time>
      </trkpt>
      <trkpt lat="7.201426" lon="80.659906">
        <ele>781.809</ele>
        <time>2022-02-23T04:50:43Z</time>
      </trkpt>
      <trkpt lat="7.207753" lon="80.656196">
        <ele>791.585</ele>
        <time>2022-02-23T05:05:24Z</time>
      </trkpt>
      <trkpt lat="7.208501" lon="80.653021">
        <ele>837.564</ele>
        <time>2022-02-23T05:19:20Z</time>
      </trkpt>
      <trkpt lat="7.218455" lon="80.649158">
        <ele>930.175</ele>
        <time>2022-02-23T06:14:55Z</time>
      </trkpt>
      <trkpt lat="7.219489" lon="80.647225">
        <ele>930.174</ele>
        <time>2022-02-23T06:18:33Z</time>
      </trkpt>
      <trkpt lat="7.222381" lon="80.647678">
        <ele>955.033</ele>
        <time>2022-02-23T06:23:24Z</time>
      </trkpt>
      <trkpt lat="7.222866" lon="80.645928">
        <ele>959.850</ele>
        <time>2022-02-23T06:26:37Z</time>
      </trkpt>
      <trkpt lat="7.225514" lon="80.646094">
        <ele>1004.493</ele>
        <time>2022-02-23T06:32:00Z</time>
      </trkpt>
      <trkpt lat="7.228926" lon="80.642357">
        <ele>1023.439</ele>
        <time>2022-02-23T06:41:03Z</time>
      </trkpt>
      <trkpt lat="7.231195" lon="80.643257">
        <ele>1041.224</ele>
        <time>2022-02-23T06:44:41Z</time>
      </trkpt>
      <trkpt lat="7.234584" lon="80.637580">
        <ele>1065.319</ele>
        <time>2022-02-23T07:21:49Z</time>
      </trkpt>
      <trkpt lat="7.240014" lon="80.635074">
        <ele>1019.509</ele>
        <time>2022-02-23T07:33:42Z</time>
      </trkpt>
      <trkpt lat="7.244176" lon="80.630113">
        <ele>1001.819</ele>
        <time>2022-02-23T07:43:38Z</time>
      </trkpt>
      <trkpt lat="7.260133" lon="80.632687">
        <ele>877.509</ele>
        <time>2022-02-23T08:24:40Z</time>
      </trkpt>
      <trkpt lat="7.265067" lon="80.636879">
        <ele>863.512</ele>
        <time>2022-02-23T08:35:57Z</time>
      </trkpt>
      <trkpt lat="7.268528" lon="80.632588">
        <ele>857.181</ele>
        <time>2022-02-23T08:52:12Z</time>
      </trkpt>
    </trkseg>
  </trk></gpx>